{"type": "FeatureCollection", "features": [ {"type": "Feature", "properties": {"norad_id": 29843, "name": "FENGYUN 1C DEB", "group": "fengyun-1c-debris", "lat": -71.75055254243344, "lon": -156.72104954727536, "alt_km": 689.6049753177876, "timestamp": "2025-12-02T10:50:47.545655+00:00", "meta": {"OBJECT_NAME": "FENGYUN 1C DEB", "OBJECT_ID": "1999-025EM", "EPOCH": "2025-12-02T03:20:40.272864", "MEAN_MOTION": 14.28542699, "ECCENTRICITY": 0.0192111, "INCLINATION": 99.038, "RA_OF_ASC_NODE": 174.093, "ARG_OF_PERICENTER": 321.5018, "MEAN_ANOMALY": 159.0497, "EPHEMERIS_TYPE": 0, "CLASSIFICATION_TYPE": "U", "NORAD_CAT_ID": 29843, "ELEMENT_SET_NO": 999, "REV_AT_EPOCH": 98130, "BSTAR": 0.00020201, "MEAN_MOTION_DOT": 5.63e-06, "MEAN_MOTION_DDOT": 0}, "tle": {"line1": "1 29843U 99025EM  25336.13935501  .00000563  00000+0  20201-3 0  9998", "line2": "2 29843  99.0380 174.0930 0192111 321.5018 159.0497 14.28542699981302"}}, "geometry": {"type": "Point", "coordinates": [-156.72104954727536, -71.75055254243344]}}, {"type": "Feature", "properties": {"norad_id": 29844, "name": "FENGYUN 1C DEB", "group": "fengyun-1c-debris", "lat": -23.916323369406147, "lon": 53.48071849752043, "alt_km": 671.4636637415997, "timestamp": "2025-12-02T10:50:47.545664+00:00", "meta": {"OBJECT_NAME": "FENGYUN 1C DEB", "OBJECT_ID": "1999-025EN", "EPOCH": "2025-12-01T23:49:56.839008", "MEAN_MOTION": 14.31937663, "ECCENTRICITY": 0.0167618, "INCLINATION": 98.9365, "RA_OF_ASC_NODE": 237.0095, "ARG_OF_PERICENTER": 198.5305, "MEAN_ANOMALY": 160.9726, "EPHEMERIS_TYPE": 0, "CLASSIFICATION_TYPE": "U", "NORAD_CAT_ID": 29844, "ELEMENT_SET_NO": 999, "REV_AT_EPOCH": 98187, "BSTAR": 0.00050248, "MEAN_MOTION_DOT": 1.521e-05, "MEAN_MOTION_DDOT": 0}, "tle": {"line1": "1 29844U 99025EN  25335.99301897  .00001521  00000+0  50248-3 0  9996", "line2": "2 29844  98.9365 237.0095 0167618 198.5305 160.9726 14.31937663981872"}}, "geometry": {"type": "Point", "coordinates": [53.48071849752043, -23.916323369406147]}}, {"type": "Feature", "properties": {"norad_id": 29845, "name": "FENGYUN 1C DEB", "group": "fengyun-1c-debris", "lat": -59.29761470433804, "lon": -8.304639085413886, "alt_km": 852.2502882043018, "timestamp": "2025-12-02T10:50:47.545689+00:00", "meta": {"OBJECT_NAME": "FENGYUN 1C DEB", "OBJECT_ID": "1999-025EP", "EPOCH": "2025-12-01T23:29:19.274784", "MEAN_MOTION": 14.2643554, "ECCENTRICITY": 0.0077407, "INCLINATION": 98.5216, "RA_OF_ASC_NODE": 336.6098, "ARG_OF_PERICENTER": 162.5078, "MEAN_ANOMALY": 227.7691, "EPHEMERIS_TYPE": 0, "CLASSIFICATION_TYPE": "U", "NORAD_CAT_ID": 29845, "ELEMENT_SET_NO": 999, "REV_AT_EPOCH": 97956, "BSTAR": 0.00065419, "MEAN_MOTION_DOT": 1.583e-05, "MEAN_MOTION_DDOT": 0}, "tle": {"line1": "1 29845U 99025EP  25335.97869531  .00001583  00000+0  65419-3 0  9993", "line2": "2 29845  98.5216 336.6098 0077407 162.5078 227.7691 14.26435540979564"}}, "geometry": {"type": "Point", "coordinates": [-8.304639085413886, -59.29761470433804]}}, {"type": "Feature", "properties": {"norad_id": 29846, "name": "FENGYUN 1C DEB", "group": "fengyun-1c-debris", "lat": -60.22790817636832, "lon": -176.93456442685672, "alt_km": 838.1260483166106, "timestamp": "2025-12-02T10:50:47.545700+00:00", "meta": {"OBJECT_NAME": "FENGYUN 1C DEB", "OBJECT_ID": "1999-025EQ", "EPOCH": "2025-12-02T03:02:20.031936", "MEAN_MOTION": 14.19081287, "ECCENTRICITY": 0.0084291, "INCLINATION": 98.6567, "RA_OF_ASC_NODE": 18.1925, "ARG_OF_PERICENTER": 335.1703, "MEAN_ANOMALY": 46.1233, "EPHEMERIS_TYPE": 0, "CLASSIFICATION_TYPE": "U", "NORAD_CAT_ID": 29846, "ELEMENT_SET_NO": 999, "REV_AT_EPOCH": 97709, "BSTAR": 0.00016145, "MEAN_MOTION_DOT": 3.06e-06, "MEAN_MOTION_DDOT": 0}, "tle": {"line1": "1 29846U 99025EQ  25336.12662074  .00000306  00000+0  16145-3 0  9999", "line2": "2 29846  98.6567  18.1925 0084291 335.1703  46.1233 14.19081287977096"}}, "geometry": {"type": "Point", "coordinates": [-176.93456442685672, -60.22790817636832]}}, {"type": "Feature", "properties": {"norad_id": 29847, "name": "FENGYUN 1C DEB", "group": "fengyun-1c-debris", "lat": 2.326062152061019, "lon": -27.776684726986947, "alt_km": 859.0734159588228, "timestamp": "2025-12-02T10:50:47.545710+00:00", "meta": {"OBJECT_NAME": "FENGYUN 1C DEB", "OBJECT_ID": "1999-025ER", "EPOCH": "2025-12-01T23:06:29.580768", "MEAN_MOTION": 14.02986585, "ECCENTRICITY": 0.008584, "INCLINATION": 98.9027, "RA_OF_ASC_NODE": 332.1098, "ARG_OF_PERICENTER": 68.6405, "MEAN_ANOMALY": 345.7733, "EPHEMERIS_TYPE": 0, "CLASSIFICATION_TYPE": "U", "NORAD_CAT_ID": 29847, "ELEMENT_SET_NO": 999, "REV_AT_EPOCH": 96584, "BSTAR": 0.00011876, "MEAN_MOTION_DOT": 1.48e-06, "MEAN_MOTION_DDOT": 0}, "tle": {"line1": "1 29847U 99025ER  25335.96284237  .00000148  00000+0  11876-3 0  9992", "line2": "2 29847  98.9027 332.1098 0085840  68.6405 345.7733 14.02986585965849"}}, "geometry": {"type": "Point", "coordinates": [-27.776684726986947, 2.326062152061019]}}, {"type": "Feature", "properties": {"norad_id": 29848, "name": "FENGYUN 1C DEB", "group": "fengyun-1c-debris", "lat": -58.44399480885026, "lon": 10.065727599280672, "alt_km": 823.8383936702248, "timestamp": "2025-12-02T10:50:47.545720+00:00", "meta": {"OBJECT_NAME": "FENGYUN 1C DEB", "OBJECT_ID": "1999-025ES", "EPOCH": "2025-12-02T03:31:21.187200", "MEAN_MOTION": 14.20456709, "ECCENTRICITY": 0.0117876, "INCLINATION": 98.2493, "RA_OF_ASC_NODE": 203.4444, "ARG_OF_PERICENTER": 326.1692, "MEAN_ANOMALY": 154.9256, "EPHEMERIS_TYPE": 0, "CLASSIFICATION_TYPE": "U", "NORAD_CAT_ID": 29848, "ELEMENT_SET_NO": 999, "REV_AT_EPOCH": 96967, "BSTAR": 0.0017455, "MEAN_MOTION_DOT": 3.977e-05, "MEAN_MOTION_DDOT": 0}, "tle": {"line1": "1 29848U 99025ES  25336.14677300  .00003977  00000+0  17455-2 0  9992", "line2": "2 29848  98.2493 203.4444 0117876 326.1692 154.9256 14.20456709969675"}}, "geometry": {"type": "Point", "coordinates": [10.065727599280672, -58.44399480885026]}}, {"type": "Feature", "properties": {"norad_id": 29849, "name": "FENGYUN 1C DEB", "group": "fengyun-1c-debris", "lat": -54.53605245546413, "lon": 73.77096757224692, "alt_km": 920.8025827047568, "timestamp": "2025-12-02T10:50:47.545731+00:00", "meta": {"OBJECT_NAME": "FENGYUN 1C DEB", "OBJECT_ID": "1999-025ET", "EPOCH": "2025-12-02T04:24:53.959104", "MEAN_MOTION": 14.04837094, "ECCENTRICITY": 0.0081158, "INCLINATION": 99.0118, "RA_OF_ASC_NODE": 60.6326, "ARG_OF_PERICENTER": 74.2259, "MEAN_ANOMALY": 316.4692, "EPHEMERIS_TYPE": 0, "CLASSIFICATION_TYPE": "U", "NORAD_CAT_ID": 29849, "ELEMENT_SET_NO": 999, "REV_AT_EPOCH": 96222, "BSTAR": 0.0012508, "MEAN_MOTION_DOT": 2.024e-05, "MEAN_MOTION_DDOT": 0}, "tle": {"line1": "1 29849U 99025ET  25336.18395786  .00002024  00000+0  12508-2 0  9998", "line2": "2 29849  99.0118  60.6326 0081158  74.2259 316.4692 14.04837094962229"}}, "geometry": {"type": "Point", "coordinates": [73.77096757224692, -54.53605245546413]}}, {"type": "Feature", "properties": {"norad_id": 29850, "name": "FENGYUN 1C DEB", "group": "fengyun-1c-debris", "lat": 71.41251598520198, "lon": -120.8849120220704, "alt_km": 918.1912299078504, "timestamp": "2025-12-02T10:50:47.545741+00:00", "meta": {"OBJECT_NAME": "FENGYUN 1C DEB", "OBJECT_ID": "1999-025EU", "EPOCH": "2025-12-02T01:58:31.164960", "MEAN_MOTION": 13.99789407, "ECCENTRICITY": 0.0103308, "INCLINATION": 98.1212, "RA_OF_ASC_NODE": 263.9117, "ARG_OF_PERICENTER": 319.755, "MEAN_ANOMALY": 50.7921, "EPHEMERIS_TYPE": 0, "CLASSIFICATION_TYPE": "U", "NORAD_CAT_ID": 29850, "ELEMENT_SET_NO": 999, "REV_AT_EPOCH": 95871, "BSTAR": 0.0015283, "MEAN_MOTION_DOT": 2.308e-05, "MEAN_MOTION_DDOT": 0}, "tle": {"line1": "1 29850U 99025EU  25336.08230515  .00002308  00000+0  15283-2 0  9995", "line2": "2 29850  98.1212 263.9117 0103308 319.7550  50.7921 13.99789407958714"}}, "geometry": {"type": "Point", "coordinates": [-120.8849120220704, 71.41251598520198]}}, {"type": "Feature", "properties": {"norad_id": 29851, "name": "FENGYUN 1C DEB", "group": "fengyun-1c-debris", "lat": -75.34989908443957, "lon": 156.90721682708596, "alt_km": 854.7268434509697, "timestamp": "2025-12-02T10:50:47.545751+00:00", "meta": {"OBJECT_NAME": "FENGYUN 1C DEB", "OBJECT_ID": "1999-025EV", "EPOCH": "2025-12-02T02:58:01.789248", "MEAN_MOTION": 13.83585072, "ECCENTRICITY": 0.0141863, "INCLINATION": 99.5856, "RA_OF_ASC_NODE": 16.8447, "ARG_OF_PERICENTER": 255.6467, "MEAN_ANOMALY": 168.6863, "EPHEMERIS_TYPE": 0, "CLASSIFICATION_TYPE": "U", "NORAD_CAT_ID": 29851, "ELEMENT_SET_NO": 999, "REV_AT_EPOCH": 95220, "BSTAR": 0.00038874, "MEAN_MOTION_DOT": 4.16e-06, "MEAN_MOTION_DDOT": 0}, "tle": {"line1": "1 29851U 99025EV  25336.12363182  .00000416  00000+0  38874-3 0  9998", "line2": "2 29851  99.5856  16.8447 0141863 255.6467 168.6863 13.83585072952205"}}, "geometry": {"type": "Point", "coordinates": [156.90721682708596, -75.34989908443957]}}, {"type": "Feature", "properties": {"norad_id": 29852, "name": "FENGYUN 1C DEB", "group": "fengyun-1c-debris", "lat": -53.33661605359057, "lon": -1.3162462916861968, "alt_km": 935.2316561708703, "timestamp": "2025-12-02T10:50:47.545762+00:00", "meta": {"OBJECT_NAME": "FENGYUN 1C DEB", "OBJECT_ID": "1999-025EW", "EPOCH": "2025-12-02T01:12:09.689760", "MEAN_MOTION": 14.06972666, "ECCENTRICITY": 0.0135221, "INCLINATION": 99.3717, "RA_OF_ASC_NODE": 345.4494, "ARG_OF_PERICENTER": 179.483, "MEAN_ANOMALY": 250.7712, "EPHEMERIS_TYPE": 0, "CLASSIFICATION_TYPE": "U", "NORAD_CAT_ID": 29852, "ELEMENT_SET_NO": 999, "REV_AT_EPOCH": 95834, "BSTAR": 0.002071, "MEAN_MOTION_DOT": 3.71e-05, "MEAN_MOTION_DDOT": 0}, "tle": {"line1": "1 29852U 99025EW  25336.05011215  .00003710  00000+0  20710-2 0  9997", "line2": "2 29852  99.3717 345.4494 0135221 179.4830 250.7712 14.06972666958343"}}, "geometry": {"type": "Point", "coordinates": [-1.3162462916861968, -53.33661605359057]}}]}